[{"name":"ONEWEB-0276","l1":"1 48994U 21060AD  26183.15807863 -.00000112  00000+0 -32659-3 0  9994","l2":"2 48994  87.9086 225.8019 0001906  93.5330 266.6019 13.16594203241540","cat":"starlink"},{"name":"ONEWEB-0277","l1":"1 48995U 21060AE  26183.17075974  .00000075  00000+0  16372-3 0  9997","l2":"2 48995  87.9078 225.8074 0002031 100.4869 259.6491 13.16594843241533","cat":"starlink"},{"name":"ONEWEB-0278","l1":"1 48996U 21060AF  26183.54123118 -.00000025  00000+0 -98689-4 0  9992","l2":"2 48996  87.9085 225.7252 0002243  93.5447 266.5941 13.16593864241717","cat":"starlink"},{"name":"ONEWEB-0279","l1":"1 48997U 21060AG  26183.54914722  .00000023  00000+0  26259-4 0  9992","l2":"2 48997  87.9086 225.7216 0001858 100.2057 259.9283 13.16593456241647","cat":"starlink"},{"name":"ONEWEB-0280","l1":"1 48998U 21060AH  26183.56419132  .00000130  00000+0  30658-3 0  9996","l2":"2 48998  87.9084 225.7226 0002295 101.3557 258.7832 13.16594924241581","cat":"starlink"},{"name":"ONEWEB-0281","l1":"1 48999U 21060AJ  26183.56972617  .00000067  00000+0  14054-3 0  9990","l2":"2 48999  87.9086 225.7169 0002107  94.7485 265.3886 13.16593131241657","cat":"starlink"},{"name":"ONEWEB-0282","l1":"1 49000U 21060AK  26183.37182388  .00000058  00000+0  11806-3 0  9993","l2":"2 49000  87.9084 225.7640 0002113  99.4998 260.6372 13.16594874241609","cat":"starlink"},{"name":"ONEWEB-0283","l1":"1 49001U 21060AL  26183.36072679 -.00000027  00000+0 -10310-3 0  9991","l2":"2 49001  87.9086 225.7657 0001940  98.7664 261.3687 13.16592765241614","cat":"starlink"},{"name":"ONEWEB-0284","l1":"1 49002U 21060AM  26183.58239970 -.00000010  00000+0 -58925-4 0  9992","l2":"2 49002  87.9088 225.7153 0002401  98.0492 262.0912 13.16593601241623","cat":"starlink"},{"name":"ONEWEB-0285","l1":"1 49075U 21075A   26183.68891147  .00000195  00000+0  50751-3 0  9999","l2":"2 49075  87.8956 347.5792 0002025  94.2502 265.8858 13.12443361237246","cat":"starlink"},{"name":"ONEWEB-0286","l1":"1 49076U 21075B   26183.74720280  .00000418  00000+0  11257-2 0  9991","l2":"2 49076  87.8946 347.5830 0001868  87.2349 272.8993 13.12442674236607","cat":"starlink"},{"name":"ONEWEB-0287","l1":"1 49077U 21075C   26183.73355647 -.00000004  00000+0 -42582-4 0  9992","l2":"2 49077  87.9134   2.7726 0002097  80.4735 279.6634 13.17650926235670","cat":"starlink"},{"name":"ONEWEB-0288","l1":"1 49078U 21075D   26183.72360557 -.00000390  00000+0 -11188-2 0  9992","l2":"2 49078  87.8962 347.5655 0002033  90.1071 270.0291 13.12443086237220","cat":"starlink"},{"name":"ONEWEB-0289","l1":"1 49079U 21075E   26183.77224411  .00000028  00000+0  38624-4 0  9998","l2":"2 49079  87.9138   2.7825 0002168  98.9698 261.1679 13.17648424236257","cat":"starlink"},{"name":"ONEWEB-0290","l1":"1 49080U 21075F   26183.74538652 -.00000015  00000+0 -71503-4 0  9993","l2":"2 49080  87.9145   2.7600 0002205 102.1678 257.9701 13.17649856235669","cat":"starlink"},{"name":"ONEWEB-0291","l1":"1 49081U 21075G   26183.73018286 -.00000007  00000+0 -51775-4 0  9999","l2":"2 49081  87.9137   2.7697 0002204  88.3973 271.7411 13.17646300235651","cat":"starlink"},{"name":"ONEWEB-0293","l1":"1 49082U 21075H   26183.75550406  .00000092  00000+0  20386-3 0  9992","l2":"2 49082  87.9132   2.7678 0002020  93.1574 266.9789 13.17649891235688","cat":"starlink"},{"name":"ONEWEB-0294","l1":"1 49083U 21075J   26183.73039465 -.00000104  00000+0 -32360-3 0  9999","l2":"2 49083  87.8956 347.5680 0002098 100.6941 259.4424 13.12443424236618","cat":"starlink"},{"name":"ONEWEB-0295","l1":"1 49084U 21075K   26183.75466568  .00000043  00000+0  78627-4 0  9997","l2":"2 49084  87.9132   2.7719 0002148  85.6085 274.5292 13.17649685235641","cat":"starlink"},{"name":"ONEWEB-0296","l1":"1 49085U 21075L   26183.71006256 -.00000394  00000+0 -11314-2 0  9997","l2":"2 49085  87.8962 347.5799 0002138  90.0210 270.1164 13.12442470236615","cat":"starlink"},{"name":"ONEWEB-0297","l1":"1 49086U 21075M   26183.74056020  .00000257  00000+0  67796-3 0  9997","l2":"2 49086  87.8948 347.5827 0001889  90.7086 269.4259 13.12443218237227","cat":"starlink"},{"name":"ONEWEB-0298","l1":"1 49087U 21075N   26183.45528691  .00000046  00000+0  85775-4 0  9998","l2":"2 49087  87.9134   2.8296 0001813  86.6906 273.4432 13.17648434235632","cat":"starlink"},{"name":"ONEWEB-0299","l1":"1 49088U 21075P   26183.76055588  .00000012  00000+0 -31702-5 0  9999","l2":"2 49088  87.9143   2.7506 0001950  85.8802 274.2553 13.17650902235652","cat":"starlink"},{"name":"ONEWEB-0300","l1":"1 49089U 21075Q   26183.73293248  .00000020  00000+0  21240-4 0  9997","l2":"2 49089  87.8960 347.5653 0001551  84.2107 275.9198 13.12443228237246","cat":"starlink"},{"name":"ONEWEB-0301","l1":"1 49090U 21075R   26183.71683411 -.00000416  00000+0 -11931-2 0  9997","l2":"2 49090  87.8956 347.5665 0001492  90.1637 269.9663 13.12442572236604","cat":"starlink"},{"name":"ONEWEB-0302","l1":"1 49091U 21075S   26183.70327869 -.00000215  00000+0 -63304-3 0  9998","l2":"2 49091  87.8961 347.5813 0002106  97.4838 262.6529 13.12441363236587","cat":"starlink"},{"name":"ONEWEB-0304","l1":"1 49092U 21075T   26183.73524705  .00000060  00000+0  12237-3 0  9995","l2":"2 49092  87.9136   2.7766 0001975  86.9691 273.1667 13.17650793235621","cat":"starlink"},{"name":"ONEWEB-0305","l1":"1 49093U 21075U   26183.72850065  .00000029  00000+0  40781-4 0  9997","l2":"2 49093  87.9144   2.7635 0002103  81.5853 278.5517 13.17650500235653","cat":"starlink"},{"name":"ONEWEB-0308","l1":"1 49094U 21075V   26183.69650376 -.00000068  00000+0 -22441-3 0  9994","l2":"2 49094  87.8958 347.5748 0001818  94.2024 265.9313 13.12441006236596","cat":"starlink"},{"name":"ONEWEB-0309","l1":"1 49095U 21075W   26183.73188159  .00000013  00000+0 -90049-6 0  9996","l2":"2 49095  87.9136   2.7700 0002266  98.5202 261.6186 13.17650123235628","cat":"starlink"},{"name":"ONEWEB-0310","l1":"1 49096U 21075X   26183.40680465 -.00000371  00000+0 -10656-2 0  9998","l2":"2 49096  87.8950 347.6526 0001827  94.6567 265.4771 13.12442367237181","cat":"starlink"}]