OBJECT_NAME,OBJECT_ID,EPOCH,MEAN_MOTION,ECCENTRICITY,INCLINATION,RA_OF_ASC_NODE,ARG_OF_PERICENTER,MEAN_ANOMALY,EPHEMERIS_TYPE,CLASSIFICATION_TYPE,NORAD_CAT_ID,ELEMENT_SET_NO,REV_AT_EPOCH,BSTAR,MEAN_MOTION_DOT,MEAN_MOTION_DDOT
ONEWEB-0276,2021-060AD,2026-07-02T03:47:37.993632,13.16594203,.00019069,87.9086,225.8019,93.5330,266.6019,0,U,48994,999,24154,-.32659497E-3,-.112E-5,0
ONEWEB-0277,2021-060AE,2026-07-02T04:05:53.641536,13.16594843,.00020316,87.9078,225.8074,100.4869,259.6491,0,U,48995,999,24153,.16372441E-3,.75E-6,0
ONEWEB-0278,2021-060AF,2026-07-02T12:59:22.373952,13.16593864,.0002243,87.9085,225.7252,93.5447,266.5941,0,U,48996,999,24171,-.98689E-4,-.25E-6,0
ONEWEB-0279,2021-060AG,2026-07-02T13:10:46.319808,13.16593456,.0001858,87.9086,225.7216,100.2057,259.9283,0,U,48997,999,24164,.26259E-4,.23E-6,0
ONEWEB-0280,2021-060AH,2026-07-02T13:32:26.130048,13.16594924,.0002295,87.9084,225.7226,101.3557,258.7832,0,U,48998,999,24158,.30658E-3,.13E-5,0
ONEWEB-0281,2021-060AJ,2026-07-02T13:40:24.341088,13.16593131,.0002107,87.9086,225.7169,94.7485,265.3886,0,U,48999,999,24165,.14054E-3,.67E-6,0
ONEWEB-0282,2021-060AK,2026-07-02T08:55:25.583232,13.16594874,.0002113,87.9084,225.7640,99.4998,260.6372,0,U,49000,999,24160,.11806E-3,.58E-6,0
ONEWEB-0283,2021-060AL,2026-07-02T08:39:26.794656,13.16592765,.000194,87.9086,225.7657,98.7664,261.3687,0,U,49001,999,24161,-.1031E-3,-.27E-6,0
ONEWEB-0284,2021-060AM,2026-07-02T13:58:39.334080,13.16593601,.0002401,87.9088,225.7153,98.0492,262.0912,0,U,49002,999,24162,-.58925E-4,-.1E-6,0
ONEWEB-0285,2021-075A,2026-07-02T16:32:01.951008,13.12443361,.0002025,87.8956,347.5792,94.2502,265.8858,0,U,49075,999,23724,.50751E-3,.195E-5,0
ONEWEB-0286,2021-075B,2026-07-02T17:55:58.321920,13.12442674,.0001868,87.8946,347.5830,87.2349,272.8993,0,U,49076,999,23660,.11257E-2,.418E-5,0
ONEWEB-0287,2021-075C,2026-07-02T17:36:19.279008,13.17650926,.0002097,87.9134,2.7726,80.4735,279.6634,0,U,49077,999,23567,-.42582E-4,-.4E-7,0
ONEWEB-0288,2021-075D,2026-07-02T17:21:59.521248,13.12443086,.0002033,87.8962,347.5655,90.1071,270.0291,0,U,49078,999,23722,-.11188E-2,-.39E-5,0
ONEWEB-0289,2021-075E,2026-07-02T18:32:01.891104,13.17648424,.0002168,87.9138,2.7825,98.9698,261.1679,0,U,49079,999,23625,.38624E-4,.28E-6,0
ONEWEB-0290,2021-075F,2026-07-02T17:53:21.395328,13.17649856,.0002205,87.9145,2.7600,102.1678,257.9701,0,U,49080,999,23566,-.71503E-4,-.15E-6,0
ONEWEB-0291,2021-075G,2026-07-02T17:31:27.799104,13.17646300,.0002204,87.9137,2.7697,88.3973,271.7411,0,U,49081,999,23565,-.51775E-4,-.7E-7,0
ONEWEB-0293,2021-075H,2026-07-02T18:07:55.550784,13.17649891,.000202,87.9132,2.7678,93.1574,266.9789,0,U,49082,999,23568,.20386E-3,.92E-6,0
ONEWEB-0294,2021-075J,2026-07-02T17:31:46.097760,13.12443424,.0002098,87.8956,347.5680,100.6941,259.4424,0,U,49083,999,23661,-.3236E-3,-.104E-5,0
ONEWEB-0295,2021-075K,2026-07-02T18:06:43.114752,13.17649685,.0002148,87.9132,2.7719,85.6085,274.5292,0,U,49084,999,23564,.78627E-4,.43E-6,0
ONEWEB-0296,2021-075L,2026-07-02T17:02:29.405184,13.12442470,.0002138,87.8962,347.5799,90.0210,270.1164,0,U,49085,999,23661,-.11314E-2,-.394E-5,0
ONEWEB-0297,2021-075M,2026-07-02T17:46:24.401280,13.12443218,.0001889,87.8948,347.5827,90.7086,269.4259,0,U,49086,999,23722,.67796E-3,.257E-5,0
ONEWEB-0298,2021-075N,2026-07-02T10:55:36.789024,13.17648434,.0001813,87.9134,2.8296,86.6906,273.4432,0,U,49087,999,23563,.85775E-4,.46E-6,0
ONEWEB-0299,2021-075P,2026-07-02T18:15:12.028032,13.17650902,.000195,87.9143,2.7506,85.8802,274.2553,0,U,49088,999,23565,-.31702E-5,.12E-6,0
ONEWEB-0300,2021-075Q,2026-07-02T17:35:25.366272,13.12443228,.0001551,87.8960,347.5653,84.2107,275.9198,0,U,49089,999,23724,.2124E-4,.2E-6,0
ONEWEB-0301,2021-075R,2026-07-02T17:12:14.467104,13.12442572,.0001492,87.8956,347.5665,90.1637,269.9663,0,U,49090,999,23660,-.11931E-2,-.416E-5,0
ONEWEB-0302,2021-075S,2026-07-02T16:52:43.278816,13.12441363,.0002106,87.8961,347.5813,97.4838,262.6529,0,U,49091,999,23658,-.63304E-3,-.215E-5,0
ONEWEB-0304,2021-075T,2026-07-02T17:38:45.345120,13.17650793,.0001975,87.9136,2.7766,86.9691,273.1667,0,U,49092,999,23562,.12237E-3,.6E-6,0
ONEWEB-0305,2021-075U,2026-07-02T17:29:02.456160,13.17650500,.0002103,87.9144,2.7635,81.5853,278.5517,0,U,49093,999,23565,.40781E-4,.29E-6,0
ONEWEB-0308,2021-075V,2026-07-02T16:42:57.924864,13.12441006,.0001818,87.8958,347.5748,94.2024,265.9313,0,U,49094,999,23659,-.22441E-3,-.68E-6,0
ONEWEB-0309,2021-075W,2026-07-02T17:33:54.569376,13.17650123,.0002266,87.9136,2.7700,98.5202,261.6186,0,U,49095,999,23562,-.90049E-6,.13E-6,0
ONEWEB-0310,2021-075X,2026-07-02T09:45:47.921760,13.12442367,.0001827,87.8950,347.6526,94.6567,265.4771,0,U,49096,999,23718,-.10656E-2,-.371E-5,0
